[{"OBJECT_NAME":"STARLINK-33996","OBJECT_ID":"2025-098U","EPOCH":"2025-11-02T04:45:23.614272","MEAN_MOTION":14.98329913,"ECCENTRICITY":0.00024227,"INCLINATION":70.0017,"RA_OF_ASC_NODE":235.9757,"ARG_OF_PERICENTER":272.5699,"MEAN_ANOMALY":87.5182,"EPHEMERIS_TYPE":0,"CLASSIFICATION_TYPE":"U","NORAD_CAT_ID":63944,"ELEMENT_SET_NO":999,"REV_AT_EPOCH":2745,"BSTAR":0.0005007691,"MEAN_MOTION_DOT":5.887e-5,"MEAN_MOTION_DDOT":0},{"OBJECT_NAME":"STARLINK-34036","OBJECT_ID":"2025-098V","EPOCH":"2025-11-02T04:57:25.513920","MEAN_MOTION":14.98341911,"ECCENTRICITY":0.00024187,"INCLINATION":70.0023,"RA_OF_ASC_NODE":236.0066,"ARG_OF_PERICENTER":268.2472,"MEAN_ANOMALY":91.841,"EPHEMERIS_TYPE":0,"CLASSIFICATION_TYPE":"U","NORAD_CAT_ID":63945,"ELEMENT_SET_NO":999,"REV_AT_EPOCH":2745,"BSTAR":0.00044183038,"MEAN_MOTION_DOT":5.184e-5,"MEAN_MOTION_DDOT":0},{"OBJECT_NAME":"STARLINK-34039","OBJECT_ID":"2025-098W","EPOCH":"2025-11-02T04:51:24.744672","MEAN_MOTION":14.98321857,"ECCENTRICITY":0.00023831,"INCLINATION":70.0011,"RA_OF_ASC_NODE":235.9904,"ARG_OF_PERICENTER":271.1676,"MEAN_ANOMALY":88.921,"EPHEMERIS_TYPE":0,"CLASSIFICATION_TYPE":"U","NORAD_CAT_ID":63946,"ELEMENT_SET_NO":999,"REV_AT_EPOCH":2745,"BSTAR":0.00086935141,"MEAN_MOTION_DOT":0.00010293,"MEAN_MOTION_DDOT":0},{"OBJECT_NAME":"STARLINK-34034","OBJECT_ID":"2025-098X","EPOCH":"2025-11-02T04:51:09.791424","MEAN_MOTION":14.98333367,"ECCENTRICITY":0.00025665,"INCLINATION":70.0011,"RA_OF_ASC_NODE":235.9901,"ARG_OF_PERICENTER":266.8315,"MEAN_ANOMALY":93.2551,"EPHEMERIS_TYPE":0,"CLASSIFICATION_TYPE":"U","NORAD_CAT_ID":63947,"ELEMENT_SET_NO":999,"REV_AT_EPOCH":2745,"BSTAR":0.00065020153,"MEAN_MOTION_DOT":7.674e-5,"MEAN_MOTION_DDOT":0},{"OBJECT_NAME":"STARLINK-33983","OBJECT_ID":"2025-098Y","EPOCH":"2025-11-02T05:57:28.756800","MEAN_MOTION":14.98339405,"ECCENTRICITY":0.00026629,"INCLINATION":70.0019,"RA_OF_ASC_NODE":235.7468,"ARG_OF_PERICENTER":275.0941,"MEAN_ANOMALY":84.9914,"EPHEMERIS_TYPE":0,"CLASSIFICATION_TYPE":"U","NORAD_CAT_ID":63948,"ELEMENT_SET_NO":999,"REV_AT_EPOCH":2746,"BSTAR":0.00059349538,"MEAN_MOTION_DOT":6.997e-5,"MEAN_MOTION_DDOT":0},{"OBJECT_NAME":"STARLINK-33993","OBJECT_ID":"2025-098Z","EPOCH":"2025-11-02T08:00:01.999872","MEAN_MOTION":14.98337453,"ECCENTRICITY":0.00029016,"INCLINATION":70.0009,"RA_OF_ASC_NODE":235.3956,"ARG_OF_PERICENTER":275.5813,"MEAN_ANOMALY":296.0783,"EPHEMERIS_TYPE":0,"CLASSIFICATION_TYPE":"U","NORAD_CAT_ID":63949,"ELEMENT_SET_NO":999,"REV_AT_EPOCH":578,"BSTAR":-0.00089659011,"MEAN_MOTION_DOT":-0.00010777,"MEAN_MOTION_DDOT":0},{"OBJECT_NAME":"STARLINK-33962","OBJECT_ID":"2025-098AA","EPOCH":"2025-11-02T12:00:02.000160","MEAN_MOTION":14.98349392,"ECCENTRICITY":0.0002814,"INCLINATION":70.0019,"RA_OF_ASC_NODE":235.0332,"ARG_OF_PERICENTER":274.0221,"MEAN_ANOMALY":72.1695,"EPHEMERIS_TYPE":0,"CLASSIFICATION_TYPE":"U","NORAD_CAT_ID":63950,"ELEMENT_SET_NO":999,"REV_AT_EPOCH":575,"BSTAR":-0.0025951,"MEAN_MOTION_DOT":-0.00030936,"MEAN_MOTION_DDOT":0},{"OBJECT_NAME":"STARLINK-33998","OBJECT_ID":"2025-098AB","EPOCH":"2025-11-02T12:00:02.000160","MEAN_MOTION":14.98348861,"ECCENTRICITY":0.0002884,"INCLINATION":70.002,"RA_OF_ASC_NODE":235.0597,"ARG_OF_PERICENTER":270.7152,"MEAN_ANOMALY":52.9601,"EPHEMERIS_TYPE":0,"CLASSIFICATION_TYPE":"U","NORAD_CAT_ID":63951,"ELEMENT_SET_NO":999,"REV_AT_EPOCH":560,"BSTAR":-0.0025049,"MEAN_MOTION_DOT":-0.00029869,"MEAN_MOTION_DDOT":0},{"OBJECT_NAME":"STARLINK-34159","OBJECT_ID":"2025-099A","EPOCH":"2025-11-01T23:51:55.149984","MEAN_MOTION":15.27603722,"ECCENTRICITY":0.0001444,"INCLINATION":43.0005,"RA_OF_ASC_NODE":177.664,"ARG_OF_PERICENTER":272.0075,"MEAN_ANOMALY":88.0611,"EPHEMERIS_TYPE":0,"CLASSIFICATION_TYPE":"U","NORAD_CAT_ID":63952,"ELEMENT_SET_NO":999,"REV_AT_EPOCH":2779,"BSTAR":0.00097445191,"MEAN_MOTION_DOT":0.00026669,"MEAN_MOTION_DDOT":0},{"OBJECT_NAME":"STARLINK-34137","OBJECT_ID":"2025-099B","EPOCH":"2025-10-31T09:46:15.486816","MEAN_MOTION":15.27584513,"ECCENTRICITY":0.00015911,"INCLINATION":43.0038,"RA_OF_ASC_NODE":186.3947,"ARG_OF_PERICENTER":284.6871,"MEAN_ANOMALY":75.3804,"EPHEMERIS_TYPE":0,"CLASSIFICATION_TYPE":"U","NORAD_CAT_ID":63953,"ELEMENT_SET_NO":999,"REV_AT_EPOCH":2756,"BSTAR":0.00097861555,"MEAN_MOTION_DOT":0.00026769,"MEAN_MOTION_DDOT":0},{"OBJECT_NAME":"STARLINK-33974","OBJECT_ID":"2025-099C","EPOCH":"2025-11-02T07:53:47.884416","MEAN_MOTION":15.27603591,"ECCENTRICITY":0.0001972,"INCLINATION":42.9998,"RA_OF_ASC_NODE":175.8745,"ARG_OF_PERICENTER":277.2333,"MEAN_ANOMALY":82.8294,"EPHEMERIS_TYPE":0,"CLASSIFICATION_TYPE":"U","NORAD_CAT_ID":63954,"ELEMENT_SET_NO":999,"REV_AT_EPOCH":2785,"BSTAR":0.0011042,"MEAN_MOTION_DOT":0.00030271,"MEAN_MOTION_DDOT":0},{"OBJECT_NAME":"STARLINK-34170","OBJECT_ID":"2025-099D","EPOCH":"2025-11-01T23:57:28.368864","MEAN_MOTION":15.27596739,"ECCENTRICITY":0.00014249,"INCLINATION":43.0002,"RA_OF_ASC_NODE":177.6921,"ARG_OF_PERICENTER":272.624,"MEAN_ANOMALY":87.4448,"EPHEMERIS_TYPE":0,"CLASSIFICATION_TYPE":"U","NORAD_CAT_ID":63955,"ELEMENT_SET_NO":999,"REV_AT_EPOCH":2779,"BSTAR":0.0014089644,"MEAN_MOTION_DOT":0.00038733,"MEAN_MOTION_DDOT":0},{"OBJECT_NAME":"STARLINK-34187","OBJECT_ID":"2025-099E","EPOCH":"2025-11-01T23:48:13.135680","MEAN_MOTION":15.27588363,"ECCENTRICITY":0.00016125,"INCLINATION":42.9997,"RA_OF_ASC_NODE":177.644,"ARG_OF_PERICENTER":274.9562,"MEAN_ANOMALY":85.1106,"EPHEMERIS_TYPE":0,"CLASSIFICATION_TYPE":"U","NORAD_CAT_ID":63956,"ELEMENT_SET_NO":999,"REV_AT_EPOCH":2780,"BSTAR":0.00055010519,"MEAN_MOTION_DOT":0.0001491,"MEAN_MOTION_DDOT":0},{"OBJECT_NAME":"STARLINK-34142","OBJECT_ID":"2025-099F","EPOCH":"2025-11-02T08:00:01.999872","MEAN_MOTION":15.27590748,"ECCENTRICITY":0.00014796,"INCLINATION":43.0007,"RA_OF_ASC_NODE":175.663,"ARG_OF_PERICENTER":275.1638,"MEAN_ANOMALY":186.532,"EPHEMERIS_TYPE":0,"CLASSIFICATION_TYPE":"U","NORAD_CAT_ID":63957,"ELEMENT_SET_NO":999,"REV_AT_EPOCH":588,"BSTAR":-0.00056381275,"MEAN_MOTION_DOT":-0.00015749,"MEAN_MOTION_DDOT":0},{"OBJECT_NAME":"STARLINK-34144","OBJECT_ID":"2025-099G","EPOCH":"2025-11-01T23:37:07.180032","MEAN_MOTION":15.27597316,"ECCENTRICITY":0.00015955,"INCLINATION":43.0012,"RA_OF_ASC_NODE":177.5869,"ARG_OF_PERICENTER":271.71,"MEAN_ANOMALY":88.3569,"EPHEMERIS_TYPE":0,"CLASSIFICATION_TYPE":"U","NORAD_CAT_ID":63958,"ELEMENT_SET_NO":999,"REV_AT_EPOCH":2780,"BSTAR":0.0011528707,"MEAN_MOTION_DOT":0.00031615,"MEAN_MOTION_DDOT":0},{"OBJECT_NAME":"STARLINK-34099","OBJECT_ID":"2025-099H","EPOCH":"2025-11-01T23:53:46.320000","MEAN_MOTION":15.27594765,"ECCENTRICITY":0.00018729,"INCLINATION":42.9995,"RA_OF_ASC_NODE":177.6712,"ARG_OF_PERICENTER":268.2061,"MEAN_ANOMALY":91.8576,"EPHEMERIS_TYPE":0,"CLASSIFICATION_TYPE":"U","NORAD_CAT_ID":63959,"ELEMENT_SET_NO":999,"REV_AT_EPOCH":2780,"BSTAR":0.00083879015,"MEAN_MOTION_DOT":0.00022902,"MEAN_MOTION_DDOT":0}]
