STARLINK-33996          
1 63944U 25098U   25306.19818998  .00005887  00000+0  50077-3 0  9998
2 63944  70.0017 235.9757 0002422 272.5699  87.5182 14.98329913 27459
STARLINK-34036          
1 63945U 25098V   25306.20654530  .00005184  00000+0  44183-3 0  9992
2 63945  70.0023 236.0066 0002418 268.2472  91.8410 14.98341911 27452
STARLINK-34039          
1 63946U 25098W   25306.20236973  .00010293  00000+0  86935-3 0  9998
2 63946  70.0011 235.9904 0002383 271.1676  88.9210 14.98321857 27451
STARLINK-34034          
1 63947U 25098X   25306.20219666  .00007674  00000+0  65020-3 0  9990
2 63947  70.0011 235.9901 0002566 266.8315  93.2551 14.98333367 27459
STARLINK-33983          
1 63948U 25098Y   25306.24824950  .00006997  00000+0  59350-3 0  9999
2 63948  70.0019 235.7468 0002662 275.0941  84.9914 14.98339405 27468
STARLINK-33993          
1 63949U 25098Z   25306.33335648 -.00010777  00000+0 -89659-3 0  9999
2 63949  70.0009 235.3956 0002901 275.5813 296.0783 14.98337453  5787
STARLINK-33962          
1 63950U 25098AA  25306.50002315 -.00030936  00000+0 -25951-2 0  9995
2 63950  70.0019 235.0332 0002814 274.0221  72.1695 14.98349392  5752
STARLINK-33998          
1 63951U 25098AB  25306.50002315 -.00029869  00000+0 -25049-2 0  9997
2 63951  70.0020 235.0597 0002884 270.7152  52.9601 14.98348861  5608
STARLINK-34159          
1 63952U 25099A   25305.99438831  .00026669  00000+0  97445-3 0  9990
2 63952  43.0005 177.6640 0001444 272.0075  88.0611 15.27603722 27790
STARLINK-34137          
1 63953U 25099B   25304.40712369  .00026769  00000+0  97862-3 0  9991
2 63953  43.0038 186.3947 0001591 284.6871  75.3804 15.27584513 27564
STARLINK-33974          
1 63954U 25099C   25306.32902644  .00030271  00000+0  11042-2 0  9990
2 63954  42.9998 175.8745 0001972 277.2333  82.8294 15.27603591 27857
STARLINK-34170          
1 63955U 25099D   25305.99824501  .00038733  00000+0  14090-2 0  9995
2 63955  43.0002 177.6921 0001424 272.6240  87.4448 15.27596739 27790
STARLINK-34187          
1 63956U 25099E   25305.99181870  .00014910  00000+0  55011-3 0  9991
2 63956  42.9997 177.6440 0001612 274.9562  85.1106 15.27588363 27801
STARLINK-34142          
1 63957U 25099F   25306.33335648 -.00015749  00000+0 -56381-3 0  9999
2 63957  43.0007 175.6630 0001479 275.1638 186.5320 15.27590748  5881
STARLINK-34144          
1 63958U 25099G   25305.98411088  .00031615  00000+0  11529-2 0  9995
2 63958  43.0012 177.5869 0001595 271.7100  88.3569 15.27597316 27806
STARLINK-34099          
1 63959U 25099H   25305.99567500  .00022902  00000+0  83879-3 0  9995
2 63959  42.9995 177.6712 0001872 268.2061  91.8576 15.27594765 27800
